NORAD_CAT_ID,OBJECT_NAME,OBJECT_TYPE,EPOCH,MEAN_MOTION,ECCENTRICITY,INCLINATION,RA_OF_ASC_NODE,ARG_OF_PERICENTER,MEAN_ANOMALY,BSTAR,MEAN_MOTION_DOT,MEAN_MOTION_DDOT,TLE_LINE0,TLE_LINE1,TLE_LINE2,SEMIMAJOR_AXIS,PERIOD,APOGEE,PERIGEE,DECAYED
51956.0,STARLINK-3700,PAYLOAD,2024-04-30 11:23:40,15.08048081,0.0001554,53.0527,189.8723,72.2838,287.8321,0.00048471,7.272e-05,0.0,0 STARLINK-3700,1 51956U 22025A   24121.47477779  .00007272  00000-0  48471-3 0  9994,2 51956  53.0527 189.8723 0001554  72.2838 287.8321 15.08048081118773,6920.302,95.488,543.242,541.092,0.0
51956.0,STARLINK-3700,PAYLOAD,2024-04-30 20:56:17,15.08043464,0.000145,53.052,188.0815,67.6308,292.4835,0.00030494,4.466e-05,0.0,0 STARLINK-3700,1 51956U 22025A   24121.87242565  .00004466  00000-0  30494-3 0  9999,2 51956  53.0520 188.0815 0001450  67.6308 292.4835 15.08043464118833,6920.316,95.488,543.185,541.178,0.0
51956.0,STARLINK-3700,PAYLOAD,2024-05-01 11:15:12,15.0804359,0.0001503,53.0523,185.3976,70.9398,289.1755,0.00022396,3.204e-05,0.0,0 STARLINK-3700,1 51956U 22025A   24122.46889663  .00003204  00000-0  22396-3 0  9992,2 51956  53.0523 185.3976 0001503  70.9398 289.1755 15.08043590118923,6920.316,95.488,543.221,541.141,0.0
51956.0,STARLINK-3700,PAYLOAD,2024-05-01 20:47:49,15.0803558,0.0001436,53.0517,183.6072,66.7229,293.3912,-1.1029e-05,-4.58e-06,0.0,0 STARLINK-3700,1 51956U 22025A   24122.86654692 -.00000458  00000-0 -11029-4 0  9990,2 51956  53.0517 183.6072 0001436  66.7229 293.3912 15.08035580120076,6920.34,95.488,543.199,541.212,0.0
51956.0,STARLINK-3700,PAYLOAD,2024-05-02 11:06:46,15.08025414,0.0001412,53.054,180.9266,84.7891,275.3259,-2.0382e-05,-6.03e-06,0.0,0 STARLINK-3700,1 51956U 22025A   24123.46303355 -.00000603  00000-0 -20382-4 0  9998,2 51956  53.0540 180.9266 0001412  84.7891 275.3259 15.08025414120165,6920.371,95.489,543.214,541.259,0.0
51956.0,STARLINK-3700,PAYLOAD,2024-05-02 20:39:22,15.08031714,0.0001436,53.0544,179.1356,83.7353,276.38,4.9524e-05,4.85e-06,0.0,0 STARLINK-3700,1 51956U 22025A   24123.86067703  .00000485  00000-0  49524-4 0  9991,2 51956  53.0544 179.1356 0001436  83.7353 276.3800 15.08031714120227,6920.352,95.489,543.211,541.223,0.0
51956.0,STARLINK-3700,PAYLOAD,2024-05-03 04:36:32,15.08039786,0.0001237,53.0529,177.6431,84.2587,275.8544,0.00014376,1.953e-05,0.0,0 STARLINK-3700,1 51956U 22025A   24124.19204409  .00001953  00000-0  14376-3 0  9991,2 51956  53.0529 177.6431 0001237  84.2587 275.8544 15.08039786120272,6920.327,95.488,543.048,541.336,0.0
51956.0,STARLINK-3700,PAYLOAD,2024-05-03 12:33:42,15.0805532,0.0001287,53.0523,176.1527,86.8267,273.2869,0.00012446,1.654e-05,0.0,0 STARLINK-3700,1 51956U 22025A   24124.52341110  .00001654  00000-0  12446-3 0  9993,2 51956  53.0523 176.1527 0001287  86.8267 273.2869 15.08055320120324,6920.28,95.487,543.036,541.254,0.0
51956.0,STARLINK-3700,PAYLOAD,2024-05-03 14:09:09,15.08052873,0.0001472,53.0525,175.854,88.9046,271.2112,0.0006304,9.548e-05,0.0,0 STARLINK-3700,1 51956U 22025A   24124.58968990  .00009548  00000-0  63040-3 0  9996,2 51956  53.0525 175.8540 0001472  88.9046 271.2112 15.08052873119249,6920.287,95.487,543.171,541.134,0.0
51956.0,STARLINK-3700,PAYLOAD,2024-05-03 20:30:54,15.08026888,0.0001459,53.054,174.664,95.0638,265.0518,-0.00018169,-3.113e-05,0.0,0 STARLINK-3700,1 51956U 22025A   24124.85479635 -.00003113  00000-0 -18169-3 0  9995,2 51956  53.0540 174.6640 0001459  95.0638 265.0518 15.08026888120379,6920.367,95.489,543.242,541.222,0.0
51956.0,STARLINK-3700,PAYLOAD,2024-05-04 12:25:15,15.08041553,0.0001393,53.0521,171.6781,101.4761,258.6386,0.00081945,0.00012498,0.0,0 STARLINK-3700,1 51956U 22025A   24125.51754482  .00012498  00000-0  81945-3 0  9991,2 51956  53.0521 171.6781 0001393 101.4761 258.6386 15.08041553120475,6920.322,95.488,543.151,541.223,0.0
51956.0,STARLINK-3700,PAYLOAD,2024-05-04 17:11:34,15.08024833,0.0001342,53.0519,170.7833,104.4659,255.6479,0.00023096,3.311e-05,0.0,0 STARLINK-3700,1 51956U 22025A   24125.71637280  .00003311  00000-0  23096-3 0  9996,2 51956  53.0519 170.7833 0001342 104.4659 255.6479 15.08024833120509,6920.373,95.489,543.167,541.309,0.0
51956.0,STARLINK-3700,PAYLOAD,2024-05-05 12:16:48,15.08035981,0.0001325,53.052,167.2036,105.1205,254.9932,0.00060474,9.143e-05,0.0,0 STARLINK-3700,1 51956U 22025A   24126.51167404  .00009143  00000-0  60474-3 0  9991,2 51956  53.0520 167.2036 0001325 105.1205 254.9932 15.08035981119536,6920.339,95.488,543.121,541.287,0.0
51956.0,STARLINK-3700,PAYLOAD,2024-05-05 20:13:59,15.0803336,0.00014,53.052,165.7124,92.2849,267.8301,0.00058378,8.815e-05,0.0,0 STARLINK-3700,1 51956U 22025A   24126.84305093  .00008815  00000-0  58378-3 0  9990,2 51956  53.0520 165.7124 0001400  92.2849 267.8301 15.08033360120670,6920.347,95.489,543.181,541.243,0.0
51956.0,STARLINK-3700,PAYLOAD,2024-05-06 08:57:28,15.08040962,0.0001392,53.052,163.3257,97.4428,262.6719,0.00047811,7.167e-05,0.0,0 STARLINK-3700,1 51956U 22025A   24127.37324901  .00007167  00000-0  47811-3 0  9997,2 51956  53.0520 163.3257 0001392  97.4428 262.6719 15.08040962119660,6920.324,95.488,543.152,541.225,0.0
51956.0,STARLINK-3700,PAYLOAD,2024-05-07 05:38:08,15.08040358,0.0001459,53.0522,159.4472,97.5251,262.5905,0.00033362,4.913e-05,0.0,0 STARLINK-3700,1 51956U 22025A   24128.23482192  .00004913  00000-0  33362-3 0  9992,2 51956  53.0522 159.4472 0001459  97.5251 262.5905 15.08040358120887,6920.326,95.488,543.2,541.181,0.0
51956.0,STARLINK-3700,PAYLOAD,2024-05-07 11:59:53,15.08039088,0.0001378,53.0516,158.2562,90.0844,270.0304,0.00023469,3.371e-05,0.0,0 STARLINK-3700,1 51956U 22025A   24128.49992076  .00003371  00000-0  23469-3 0  9991,2 51956  53.0516 158.2562 0001378  90.0844 270.0304 15.08039088119831,6920.33,95.488,543.148,541.241,0.0
51956.0,STARLINK-3700,PAYLOAD,2024-05-08 11:51:25,15.08030443,0.0001322,53.053,153.7824,95.8952,264.2189,2.32e-05,7.5e-07,0.0,0 STARLINK-3700,1 51956U 22025A   24129.49405048  .00000075  00000-0  23200-4 0  9992,2 51956  53.0530 153.7824 0001322  95.8952 264.2189 15.08030443121071,6920.356,95.489,543.136,541.306,0.0
51956.0,STARLINK-3700,PAYLOAD,2024-05-08 18:13:10,15.08024904,0.0001299,53.0524,152.5874,90.0952,270.0186,6.1578e-05,6.73e-06,0.0,0 STARLINK-3700,1 51956U 22025A   24129.75915450  .00000673  00000-0  61578-4 0  9998,2 51956  53.0524 152.5874 0001299  90.0952 270.0186 15.08024904120027,6920.373,95.489,543.137,541.339,0.0
51956.0,STARLINK-3700,PAYLOAD,2024-05-09 08:32:05,15.08035973,0.0001238,53.0528,149.9033,87.9707,272.1424,8.557e-06,-1.53e-06,0.0,0 STARLINK-3700,1 51956U 22025A   24130.35562347 -.00000153  00000-0  85570-5 0  9992,2 51956  53.0528 149.9033 0001238  87.9707 272.1424 15.08035973120110,6920.339,95.488,543.061,541.347,0.0
51956.0,STARLINK-3700,PAYLOAD,2024-05-09 18:04:42,15.08036105,0.0001299,53.0533,148.114,89.8801,270.2337,7.0581e-05,8.13e-06,0.0,0 STARLINK-3700,1 51956U 22025A   24130.75327250  .00000813  00000-0  70581-4 0  9995,2 51956  53.0533 148.1140 0001299  89.8801 270.2337 15.08036105121266,6920.339,95.488,543.103,541.305,0.0
51956.0,STARLINK-3700,PAYLOAD,2024-05-10 05:12:46,15.08030402,0.0001319,53.0531,146.026,90.7647,269.3494,0.00013364,1.795e-05,0.0,0 STARLINK-3700,1 51956U 22025A   24131.21720111  .00001795  00000-0  13364-3 0  9995,2 51956  53.0531 146.0260 0001319  90.7647 269.3494 15.08030402121331,6920.356,95.489,543.134,541.308,0.0
51956.0,STARLINK-3700,PAYLOAD,2024-05-10 09:59:04,15.08034711,0.0001352,53.0531,145.1313,91.1881,268.9264,0.00016925,2.35e-05,0.0,0 STARLINK-3700,1 51956U 22025A   24131.41602310  .00002350  00000-0  16925-3 0  9991,2 51956  53.0531 145.1313 0001352  91.1881 268.9264 15.08034711120271,6920.343,95.489,543.144,541.272,0.0
51956.0,STARLINK-3700,PAYLOAD,2024-05-10 17:56:15,15.08031014,0.0001374,53.0535,143.64,92.2441,267.8706,9.6876e-05,1.223e-05,0.0,0 STARLINK-3700,1 51956U 22025A   24131.74740270  .00001223  00000-0  96876-4 0  9997,2 51956  53.0535 143.6400 0001374  92.2441 267.8706 15.08031014120321,6920.354,95.489,543.17,541.268,0.0
51956.0,STARLINK-3700,PAYLOAD,2024-05-11 09:50:36,15.08060745,0.0001491,53.0529,140.6572,100.285,259.8308,0.00060129,9.095e-05,0.0,0 STARLINK-3700,1 51956U 22025A   24132.41014246  .00009095  00000-0  60129-3 0  9995,2 51956  53.0529 140.6572 0001491 100.2850 259.8308 15.08060745121519,6920.263,95.487,543.16,541.096,0.0
51956.0,STARLINK-3700,PAYLOAD,2024-05-11 17:47:46,15.08050087,0.0001562,53.0531,139.1655,93.5042,266.6127,0.00033243,4.896e-05,0.0,0 STARLINK-3700,1 51956U 22025A   24132.74151480  .00004896  00000-0  33243-3 0  9994,2 51956  53.0531 139.1655 0001562  93.5042 266.6127 15.08050087121561,6920.296,95.488,543.242,541.08,0.0
51956.0,STARLINK-3700,PAYLOAD,2024-05-12 04:55:51,15.08005421,0.0001214,53.0531,137.0781,52.3246,307.7854,-0.00045584,-7.371e-05,0.0,0 STARLINK-3700,1 51956U 22025A   24133.20545704 -.00007371  00000-0 -45584-3 0  9996,2 51956  53.0531 137.0781 0001214  52.3246 307.7854 15.08005421121635,6920.433,95.49,543.138,541.457,0.0
51956.0,STARLINK-3700,PAYLOAD,2024-05-12 06:31:18,15.07993888,0.0001195,53.0523,136.7823,73.3401,286.772,-0.00067994,-0.00010845,0.0,0 STARLINK-3700,1 51956U 22025A   24133.27173750 -.00010845  00000-0 -67994-3 0  9990,2 51956  53.0523 136.7823 0001195  73.3401 286.7720 15.07993888121644,6920.468,95.491,543.16,541.506,0.0
51956.0,STARLINK-3700,PAYLOAD,2024-05-12 17:39:21,15.07994641,0.0001278,53.0544,134.6936,78.4268,281.6865,-0.00046509,-7.512e-05,0.0,0 STARLINK-3700,1 51956U 22025A   24133.73567124 -.00007512  00000-0 -46509-3 0  9999,2 51956  53.0544 134.6936 0001278  78.4268 281.6865 15.07994641120627,6920.466,95.491,543.215,541.446,0.0
51956.0,STARLINK-3700,PAYLOAD,2024-05-13 04:47:25,15.08015597,0.0001552,53.0533,132.6041,71.846,288.2699,6.8767e-05,7.84e-06,0.0,0 STARLINK-3700,1 51956U 22025A   24134.19959584  .00000784  00000-0  68767-4 0  9998,2 51956  53.0533 132.6041 0001552  71.8460 288.2699 15.08015597121787,6920.401,95.49,543.34,541.192,0.0
